NORAD_CAT_ID,OBJECT_NAME,OBJECT_TYPE,EPOCH,MEAN_MOTION,ECCENTRICITY,INCLINATION,RA_OF_ASC_NODE,ARG_OF_PERICENTER,MEAN_ANOMALY,BSTAR,MEAN_MOTION_DOT,MEAN_MOTION_DDOT,TLE_LINE0,TLE_LINE1,TLE_LINE2,SEMIMAJOR_AXIS,PERIOD,APOGEE,PERIGEE,DECAYED
54778.0,STARLINK-5450,PAYLOAD,2023-11-12 01:19:27,15.08831176,0.0001675,53.2169,238.8522,99.4767,260.6414,0.00018408,2.642e-05,0.0,0 STARLINK-5450,1 54778U 22175W   23316.05518279  .00002642  00000-0  18408-3 0  9998,2 54778  53.2169 238.8522 0001675  99.4767 260.6414 15.08831176 49859,6917.907,95.438,540.931,538.614,0.0
54778.0,STARLINK-5450,PAYLOAD,2023-11-12 12:27:10,15.08829265,0.0001586,53.2166,236.7719,97.512,262.6052,0.00014373,2e-05,0.0,0 STARLINK-5450,1 54778U 22175W   23316.51886748  .00002000  00000-0  14373-3 0  9993,2 54778  53.2166 236.7719 0001586  97.5120 262.6052 15.08829265 52089,6917.913,95.438,540.875,538.681,0.0
54778.0,STARLINK-5450,PAYLOAD,2023-11-12 21:59:28,15.08843698,0.000145,53.2165,234.9881,92.9372,267.1786,1.287e-05,-8.3e-07,0.0,0 STARLINK-5450,1 54778U 22175W   23316.91630249 -.00000083  00000-0  12870-4 0  9991,2 54778  53.2165 234.9881 0001450  92.9372 267.1786 15.08843698 52143,6917.869,95.437,540.737,538.731,0.0
54778.0,STARLINK-5450,PAYLOAD,2023-11-13 01:10:14,15.08854161,0.0001779,53.2165,234.3914,123.1219,236.9944,-5.0743e-05,-1.096e-05,0.0,0 STARLINK-5450,1 54778U 22175W   23317.04877679 -.00001096  00000-0 -50743-4 0  9993,2 54778  53.2165 234.3914 0001779 123.1219 236.9944 15.08854161 50005,6917.837,95.437,540.933,538.471,0.0
54778.0,STARLINK-5450,PAYLOAD,2023-11-13 04:21:00,15.08857152,0.0001864,53.2167,233.7949,124.7194,235.3974,-3.715e-05,-8.8e-06,0.0,0 STARLINK-5450,1 54778U 22175W   23317.18125296 -.00000880  00000-0 -37150-4 0  9996,2 54778  53.2167 233.7949 0001864 124.7194 235.3974 15.08857152 52182,6917.828,95.436,540.982,538.403,0.0
54778.0,STARLINK-5450,PAYLOAD,2023-11-14 01:01:01,15.08846173,0.0002017,53.2176,229.9249,120.0935,240.0257,-0.00010878,-2.019e-05,0.0,0 STARLINK-5450,1 54778U 22175W   23318.04238088 -.00002019  00000-0 -10878-3 0  9999,2 54778  53.2176 229.9249 0002017 120.0935 240.0257 15.08846173 50158,6917.862,95.437,541.122,538.331,0.0
54778.0,STARLINK-5450,PAYLOAD,2023-11-14 04:11:48,15.08844766,0.0001987,53.2183,229.3314,111.4087,248.7118,-0.00010829,-2.012e-05,0.0,0 STARLINK-5450,1 54778U 22175W   23318.17486165 -.00002012  00000-0 -10829-3 0  9993,2 54778  53.2183 229.3314 0001987 111.4087 248.7118 15.08844766 52339,6917.866,95.437,541.105,538.356,0.0
54778.0,STARLINK-5450,PAYLOAD,2023-11-15 00:51:48,15.08843941,0.0001658,53.2174,225.4665,110.081,250.0361,-7.5376e-05,-1.488e-05,0.0,0 STARLINK-5450,1 54778U 22175W   23319.03598016 -.00001488  00000-0 -75376-4 0  9993,2 54778  53.2174 225.4665 0001658 110.0810 250.0361 15.08843941 52463,6917.868,95.437,540.88,538.586,0.0
54778.0,STARLINK-5450,PAYLOAD,2023-11-15 18:21:03,15.08837477,0.0001728,53.218,222.197,92.0564,268.0626,-9.3867e-06,-4.37e-06,0.0,0 STARLINK-5450,1 54778U 22175W   23319.76462357 -.00000437  00000-0 -93867-5 0  9990,2 54778  53.2180 222.1970 0001728  92.0564 268.0626 15.08837477 50419,6917.888,95.438,540.949,538.558,0.0
54778.0,STARLINK-5450,PAYLOAD,2023-11-16 00:42:35,15.0884476,0.0001421,53.2174,221.0114,85.7554,274.3601,-7.0233e-05,-1.406e-05,0.0,0 STARLINK-5450,1 54778U 22175W   23320.02958209 -.00001406  00000-0 -70233-4 0  9995,2 54778  53.2174 221.0114 0001421  85.7554 274.3601 15.08844760 52618,6917.866,95.437,540.714,538.748,0.0
54778.0,STARLINK-5450,PAYLOAD,2023-11-16 16:36:27,15.08835089,0.0001499,53.2172,218.0394,92.0643,268.0521,1.0709e-05,-1.18e-06,0.0,0 STARLINK-5450,1 54778U 22175W   23320.69198517 -.00000118  00000-0  10709-4 0  9996,2 54778  53.2172 218.0394 0001499  92.0643 268.0521 15.08835089 52713,6917.895,95.438,540.797,538.723,0.0
54778.0,STARLINK-5450,PAYLOAD,2023-11-17 02:08:46,15.08826321,0.0001634,53.2174,216.2554,95.6417,264.4761,0.00016849,2.394e-05,0.0,0 STARLINK-5450,1 54778U 22175W   23321.08942469  .00002394  00000-0  16849-3 0  9990,2 54778  53.2174 216.2554 0001634  95.6417 264.4761 15.08826321 50614,6917.922,95.438,540.918,538.657,0.0
54778.0,STARLINK-5450,PAYLOAD,2023-11-17 10:05:42,15.08836625,0.0001716,53.2173,214.767,88.1319,271.987,7.3495e-06,-1.71e-06,0.0,0 STARLINK-5450,1 54778U 22175W   23321.42062611 -.00000171  00000-0  73495-5 0  9994,2 54778  53.2173 214.7670 0001716  88.1319 271.9870 15.08836625 52821,6917.891,95.438,540.943,538.569,0.0
54778.0,STARLINK-5450,PAYLOAD,2023-11-17 22:48:47,15.08831785,0.0001695,53.2183,212.3889,87.8312,272.2874,-3.0939e-05,-7.8e-06,0.0,0 STARLINK-5450,1 54778U 22175W   23321.95055216 -.00000780  00000-0 -30939-4 0  9997,2 54778  53.2183 212.3889 0001695  87.8312 272.2874 15.08831785 52902,6917.905,95.438,540.943,538.598,0.0
54778.0,STARLINK-5450,PAYLOAD,2023-11-18 09:56:29,15.08835948,0.0001462,53.217,210.3074,86.8699,273.2461,8.835e-06,-1.47e-06,0.0,0 STARLINK-5450,1 54778U 22175W   23322.41422889 -.00000147  00000-0  88350-5 0  9990,2 54778  53.2170 210.3074 0001462  86.8699 273.2461 15.08835948 50817,6917.893,95.438,540.769,538.746,0.0
54778.0,STARLINK-5450,PAYLOAD,2023-11-18 16:18:01,15.08839381,0.0001408,53.2173,209.1171,85.1365,274.9788,-2.3365e-06,-3.25e-06,0.0,0 STARLINK-5450,1 54778U 22175W   23322.67918776 -.00000325  00000-0 -23365-5 0  9997,2 54778  53.2173 209.1171 0001408  85.1365 274.9788 15.08839381 53016,6917.882,95.438,540.721,538.773,0.0
54778.0,STARLINK-5450,PAYLOAD,2023-11-19 01:50:20,15.08844525,0.0001466,53.2171,207.3332,82.6144,277.5015,4.4828e-05,4.26e-06,0.0,0 STARLINK-5450,1 54778U 22175W   23323.07662195  .00000426  00000-0  44828-4 0  9999,2 54778  53.2171 207.3332 0001466  82.6144 277.5015 15.08844525 50918,6917.867,95.437,540.746,538.717,0.0
54778.0,STARLINK-5450,PAYLOAD,2023-11-19 09:47:16,15.08839109,0.0001339,53.2179,205.8441,99.9477,260.1666,-8.0404e-05,-1.567e-05,0.0,0 STARLINK-5450,1 54778U 22175W   23323.40782837 -.00001567  00000-0 -80404-4 0  9991,2 54778  53.2179 205.8441 0001339  99.9477 260.1666 15.08839109 50966,6917.883,95.438,540.674,538.822,0.0
54778.0,STARLINK-5450,PAYLOAD,2023-11-19 22:30:21,15.08830972,0.0001376,53.2165,203.4672,93.8493,266.2656,1.1213e-05,-1.09e-06,0.0,0 STARLINK-5450,1 54778U 22175W   23323.93775273 -.00000109  00000-0  11213-4 0  9997,2 54778  53.2165 203.4672 0001376  93.8493 266.2656 15.08830972 53208,6917.908,95.438,540.725,538.821,0.0
54778.0,STARLINK-5450,PAYLOAD,2023-11-20 09:38:03,15.08837326,0.0001453,53.2165,201.385,95.3585,264.7573,1.9819e-05,2.7e-07,0.0,0 STARLINK-5450,1 54778U 22175W   23324.40142923  .00000027  00000-0  19819-4 0  9998,2 54778  53.2165 201.3850 0001453  95.3585 264.7573 15.08837326 53276,6917.889,95.438,540.759,538.748,0.0
54778.0,STARLINK-5450,PAYLOAD,2023-11-20 19:10:23,15.08821968,0.0001607,53.2166,199.6023,92.5519,267.5657,-0.00016467,-2.906e-05,0.0,0 STARLINK-5450,1 54778U 22175W   23324.79888843 -.00002906  00000-0 -16467-3 0  9993,2 54778  53.2166 199.6023 0001607  92.5519 267.5657 15.08821968 51171,6917.936,95.439,540.912,538.689,0.0
54778.0,STARLINK-5450,PAYLOAD,2023-11-20 22:21:10,15.08817819,0.0001538,53.2171,199.0082,87.2826,272.8342,-0.00018674,-3.257e-05,0.0,0 STARLINK-5450,1 54778U 22175W   23324.93137354 -.00003257  00000-0 -18674-3 0  9995,2 54778  53.2171 199.0082 0001538  87.2826 272.8342 15.08817819 53353,6917.948,95.439,540.877,538.749,0.0
54778.0,STARLINK-5450,PAYLOAD,2023-11-21 01:31:56,15.08819987,0.0001505,53.2168,198.4118,93.313,266.8034,-0.00019641,-3.411e-05,0.0,0 STARLINK-5450,1 54778U 22175W   23325.06385378 -.00003411  00000-0 -19641-3 0  9998,2 54778  53.2168 198.4118 0001505  93.3130 266.8034 15.08819987 53373,6917.942,95.439,540.848,538.765,0.0
54778.0,STARLINK-5450,PAYLOAD,2023-11-21 19:01:10,15.08830843,0.000163,53.2167,195.1413,89.5628,270.5551,1.863e-05,8e-08,0.0,0 STARLINK-5450,1 54778U 22175W   23325.79248376  .00000008  00000-0  18630-4 0  9999,2 54778  53.2167 195.1413 0001630  89.5628 270.5551 15.08830843 51325,6917.908,95.438,540.901,538.646,0.0
54778.0,STARLINK-5450,PAYLOAD,2023-11-21 20:36:33,15.08835769,0.0001704,53.2164,194.8426,89.0596,271.0592,5.3523e-05,5.64e-06,0.0,0 STARLINK-5450,1 54778U 22175W   23325.85871983  .00000564  00000-0  53523-4 0  9999,2 54778  53.2164 194.8426 0001704  89.0596 271.0592 15.08835769 53496,6917.893,95.438,540.937,538.58,0.0
54778.0,STARLINK-5450,PAYLOAD,2023-11-21 22:11:56,15.08839278,0.0001892,53.2166,194.5445,95.445,264.6758,6.5123e-05,7.48e-06,0.0,0 STARLINK-5450,1 54778U 22175W   23325.92495734  .00000748  00000-0  65123-4 0  9996,2 54778  53.2166 194.5445 0001892  95.4450 264.6758 15.08839278 51347,6917.883,95.438,541.056,538.439,0.0
54778.0,STARLINK-5450,PAYLOAD,2023-11-22 18:51:55,15.08844654,0.000173,53.2164,190.6809,90.1522,269.9668,0.0002755,4.1e-05,0.0,0 STARLINK-5450,1 54778U 22175W   23326.78606299  .00004100  00000-0  27550-3 0  9998,2 54778  53.2164 190.6809 0001730  90.1522 269.9668 15.08844654 51475,6917.866,95.437,540.928,538.534,0.0
54778.0,STARLINK-5450,PAYLOAD,2023-11-22 20:27:18,15.08845522,0.0001739,53.2163,190.3823,86.7302,273.3889,0.00028294,4.218e-05,0.0,0 STARLINK-5450,1 54778U 22175W   23326.85230208  .00004218  00000-0  28294-3 0  9995,2 54778  53.2163 190.3823 0001739  86.7302 273.3889 15.08845522 53643,6917.864,95.437,540.932,538.525,0.0
54778.0,STARLINK-5450,PAYLOAD,2023-11-22 22:02:41,15.08848626,0.0001748,53.216,190.0824,92.4468,267.6724,0.00030034,4.496e-05,0.0,0 STARLINK-5450,1 54778U 22175W   23326.91853860  .00004496  00000-0  30034-3 0  9990,2 54778  53.2160 190.0824 0001748  92.4468 267.6724 15.08848626 53658,6917.854,95.437,540.928,538.51,0.0
54778.0,STARLINK-5450,PAYLOAD,2023-11-23 18:42:44,15.08842575,0.0001467,53.216,186.2173,106.5396,253.5757,-0.0001428,-2.56e-05,0.0,0 STARLINK-5450,1 54778U 22175W   23327.77967779 -.00002560  00000-0 -14280-3 0  9997,2 54778  53.2160 186.2173 0001467 106.5396 253.5757 15.08842575 51629,6917.873,95.437,540.752,538.723,0.0
